[{"OBJECT_NAME":"POLAR SCOUT YUKON","OBJECT_ID":"2018-099BC","EPOCH":"2026-03-09T17:15:46.142784","MEAN_MOTION":15.33775706,"ECCENTRICITY":0.0003933,"INCLINATION":97.4761,"RA_OF_ASC_NODE":140.0523,"ARG_OF_PERICENTER":328.7158,"MEAN_ANOMALY":31.385,"EPHEMERIS_TYPE":0,"CLASSIFICATION_TYPE":"U","NORAD_CAT_ID":43808,"ELEMENT_SET_NO":999,"REV_AT_EPOCH":39824,"BSTAR":0.00070317967,"MEAN_MOTION_DOT":0.00022935,"MEAN_MOTION_DDOT":0},{"OBJECT_NAME":"SL-3 R\/B","OBJECT_ID":"1981-065B","EPOCH":"2026-03-09T21:58:16.284000","MEAN_MOTION":15.33300883,"ECCENTRICITY":0.00117648,"INCLINATION":97.6337,"RA_OF_ASC_NODE":111.1786,"ARG_OF_PERICENTER":10.529,"MEAN_ANOMALY":349.6196,"EPHEMERIS_TYPE":0,"CLASSIFICATION_TYPE":"U","NORAD_CAT_ID":12586,"ELEMENT_SET_NO":999,"REV_AT_EPOCH":43499,"BSTAR":0.00030084921,"MEAN_MOTION_DOT":9.62e-5,"MEAN_MOTION_DDOT":0}]
